{"type": "FeatureCollection", "features": [{"type": "Feature", "properties": {"cluster_id": "0"}, "geometry": {"type": "Polygon", "coordinates": [[[-86.46179343084556, 36.22848312856514], [-86.40608236822102, 36.1835170482692], [-86.46179343084556, 36.138550967973266], [-86.5175044934701, 36.1835170482692], [-86.46179343084556, 36.22848312856514]]]}}, {"type": "Feature", "properties": {"cluster_id": "1"}, "geometry": {"type": "Polygon", "coordinates": [[[-75.18937480255242, 40.29939291293266], [-75.1304556350183, 40.254426832636724], [-75.18937480255242, 40.20946075234079], [-75.24829397008655, 40.254426832636724], [-75.18937480255242, 40.29939291293266]]]}}, {"type": "Feature", "properties": {"cluster_id": "10"}, "geometry": {"type": "Polygon", "coordinates": [[[-73.97443196833073, 40.718051365937505], [-73.91514442265083, 40.67308528564157], [-73.97443196833073, 40.628119205345634], [-74.03371951401064, 40.67308528564157], [-73.97443196833073, 40.718051365937505]]]}}, {"type": "Feature", "properties": {"cluster_id": "11"}, "geometry": {"type": "Polygon", "coordinates": [[[-82.35847327430446, 31.38184320316491], [-82.30582744566894, 31.336877122868973], [-82.35847327430446, 31.291911042573037], [-82.41111910293998, 31.336877122868973], [-82.35847327430446, 31.38184320316491]]]}}, {"type": "Feature", "properties": {"cluster_id": "12"}, "geometry": {"type": "Polygon", "coordinates": [[[-83.85107226639195, 35.943864183892664], [-83.79556221348224, 35.89889810359673], [-83.85107226639195, 35.85393202330079], [-83.90658231930166, 35.89889810359673], [-83.85107226639195, 35.943864183892664]]]}}, {"type": "Feature", "properties": {"cluster_id": "13"}, "geometry": {"type": "Polygon", "coordinates": [[[-76.51364671331196, 39.59263270888425], [-76.45533214472697, 39.54766662858832], [-76.51364671331196, 39.50270054829238], [-76.57196128189695, 39.54766662858832], [-76.51364671331196, 39.59263270888425]]]}}, {"type": "Feature", "properties": {"cluster_id": "14"}, "geometry": {"type": "Polygon", "coordinates": [[[-91.01544910888651, 32.419660517484225], [-90.96220737266208, 32.37469443718829], [-91.01544910888651, 32.32972835689235], [-91.06869084511095, 32.37469443718829], [-91.01544910888651, 32.419660517484225]]]}}, {"type": "Feature", "properties": {"cluster_id": "15"}, "geometry": {"type": "Polygon", "coordinates": [[[-87.62556666666667, 36.5785327469626], [-87.56960447773443, 36.533566666666665], [-87.62556666666667, 36.48860058637073], [-87.68152885559891, 36.533566666666665], [-87.62556666666667, 36.5785327469626]]]}}, {"type": "Feature", "properties": {"cluster_id": "16"}, "geometry": {"type": "Polygon", "coordinates": [[[-78.10485, 43.117516080295935], [-78.04329390978629, 43.07255], [-78.10485, 43.027583919704064], [-78.16640609021371, 43.07255], [-78.10485, 43.117516080295935]]]}}, {"type": "Feature", "properties": {"cluster_id": "17"}, "geometry": {"type": "Polygon", "coordinates": [[[-71.39114214676937, 42.222226167957146], [-71.33046500230543, 42.17726008766121], [-71.39114214676937, 42.132294007365275], [-71.4518192912333, 42.17726008766121], [-71.39114214676937, 42.222226167957146]]]}}, {"type": "Feature", "properties": {"cluster_id": "18"}, "geometry": {"type": "Polygon", "coordinates": [[[-74.25119352973365, 42.773327518228974], [-74.18998011147194, 42.72836143793304], [-74.25119352973365, 42.6833953576371], [-74.31240694799537, 42.72836143793304], [-74.25119352973365, 42.773327518228974]]]}}, {"type": "Feature", "properties": {"cluster_id": "19"}, "geometry": {"type": "Polygon", "coordinates": [[[-75.73931467622737, 41.63622689515349], [-75.67919150542156, 41.591260814857556], [-75.73931467622737, 41.54629473456162], [-75.79943784703318, 41.591260814857556], [-75.73931467622737, 41.63622689515349]]]}}, {"type": "Feature", "properties": {"cluster_id": "2"}, "geometry": {"type": "Polygon", "coordinates": [[[-77.46031503524283, 37.50770768274771], [-77.40366478675163, 37.46274160245177], [-77.46031503524283, 37.417775522155836], [-77.51696528373402, 37.46274160245177], [-77.46031503524283, 37.50770768274771]]]}}, {"type": "Feature", "properties": {"cluster_id": "20"}, "geometry": {"type": "Polygon", "coordinates": [[[-86.08595, 35.254466080295934], [-86.03091527970804, 35.2095], [-86.08595, 35.16453391970406], [-86.14098472029195, 35.2095], [-86.08595, 35.254466080295934]]]}}, {"type": "Feature", "properties": {"cluster_id": "21"}, "geometry": {"type": "Polygon", "coordinates": [[[-82.0131, 33.51866608029594], [-81.95919282661173, 33.4737], [-82.0131, 33.428733919704065], [-82.06700717338826, 33.4737], [-82.0131, 33.51866608029594]]]}}, {"type": "Feature", "properties": {"cluster_id": "22"}, "geometry": {"type": "Polygon", "coordinates": [[[-85.59906666666666, 32.18416608029594], [-85.5459628613577, 32.1392], [-85.59906666666666, 32.09423391970407], [-85.65217047197562, 32.1392], [-85.59906666666666, 32.18416608029594]]]}}, {"type": "Feature", "properties": {"cluster_id": "23"}, "geometry": {"type": "Polygon", "coordinates": [[[-82.50670000000001, 35.915999413629265], [-82.45120947493409, 35.87103333333333], [-82.50670000000001, 35.826067253037394], [-82.56219052506593, 35.87103333333333], [-82.50670000000001, 35.915999413629265]]]}}, {"type": "Feature", "properties": {"cluster_id": "24"}, "geometry": {"type": "Polygon", "coordinates": [[[-79.7221, 37.08961608029594], [-79.6657632673501, 37.044650000000004], [-79.7221, 36.99968391970407], [-79.7784367326499, 37.044650000000004], [-79.7221, 37.08961608029594]]]}}, {"type": "Feature", "properties": {"cluster_id": "25"}, "geometry": {"type": "Polygon", "coordinates": [[[-88.44939750333847, 35.20835565095109], [-88.39439400220694, 35.163389570655156], [-88.44939750333847, 35.11842349035922], [-88.50440100447001, 35.163389570655156], [-88.44939750333847, 35.20835565095109]]]}}, {"type": "Feature", "properties": {"cluster_id": "26"}, "geometry": {"type": "Polygon", "coordinates": [[[-89.43945, 32.224566080295936], [-89.38632264664749, 32.1796], [-89.43945, 32.134633919704065], [-89.4925773533525, 32.1796], [-89.43945, 32.224566080295936]]]}}, {"type": "Feature", "properties": {"cluster_id": "27"}, "geometry": {"type": "Polygon", "coordinates": [[[-80.0462, 40.44506608029594], [-79.98715353228678, 40.4001], [-80.0462, 40.355133919704066], [-80.10524646771321, 40.4001], [-80.0462, 40.44506608029594]]]}}, {"type": "Feature", "properties": {"cluster_id": "28"}, "geometry": {"type": "Polygon", "coordinates": [[[-83.67746666666666, 31.54879941362927], [-83.62472703989741, 31.503833333333333], [-83.67746666666666, 31.458867253037397], [-83.73020629343591, 31.503833333333333], [-83.67746666666666, 31.54879941362927]]]}}, {"type": "Feature", "properties": {"cluster_id": "29"}, "geometry": {"type": "Polygon", "coordinates": [[[-85.52125000000001, 38.36351608029594], [-85.46393738889158, 38.31855], [-85.52125000000001, 38.273583919704066], [-85.57856261110844, 38.31855], [-85.52125000000001, 38.36351608029594]]]}}, {"type": "Feature", "properties": {"cluster_id": "3"}, "geometry": {"type": "Polygon", "coordinates": [[[-80.60085514440162, 35.57866799450497], [-80.54559890470557, 35.53370191420903], [-80.60085514440162, 35.4887358339131], [-80.65611138409767, 35.53370191420903], [-80.60085514440162, 35.57866799450497]]]}}, {"type": "Feature", "properties": {"cluster_id": "30"}, "geometry": {"type": "Polygon", "coordinates": [[[-76.1759, 36.84276608029594], [-76.11974535144304, 36.7978], [-76.1759, 36.75283391970407], [-76.23205464855695, 36.7978], [-76.1759, 36.84276608029594]]]}}, {"type": "Feature", "properties": {"cluster_id": "4"}, "geometry": {"type": "Polygon", "coordinates": [[[-90.03214526831593, 34.709402907815196], [-89.97747507784493, 34.66443682751926], [-90.03214526831593, 34.619470747223325], [-90.08681545878693, 34.66443682751926], [-90.03214526831593, 34.709402907815196]]]}}, {"type": "Feature", "properties": {"cluster_id": "5"}, "geometry": {"type": "Polygon", "coordinates": [[[-84.1213564275403, 33.65384348310787], [-84.06736487587268, 33.608877402811935], [-84.1213564275403, 33.563911322516], [-84.17534797920793, 33.608877402811935], [-84.1213564275403, 33.65384348310787]]]}}, {"type": "Feature", "properties": {"cluster_id": "6"}, "geometry": {"type": "Polygon", "coordinates": [[[-72.74225647629704, 41.65113356310604], [-72.6821194166563, 41.60616748281011], [-72.74225647629704, 41.56120140251417], [-72.80239353593778, 41.60616748281011], [-72.74225647629704, 41.65113356310604]]]}}, {"type": "Feature", "properties": {"cluster_id": "7"}, "geometry": {"type": "Polygon", "coordinates": [[[-77.2725716246339, 38.783993237972076], [-77.21492312456209, 38.73902715767614], [-77.2725716246339, 38.694061077380205], [-77.3302201247057, 38.73902715767614], [-77.2725716246339, 38.783993237972076]]]}}, {"type": "Feature", "properties": {"cluster_id": "8"}, "geometry": {"type": "Polygon", "coordinates": [[[-86.84730167673587, 34.00253610051342], [-86.79308984768348, 33.95757002021748], [-86.84730167673587, 33.912603939921546], [-86.90151350578826, 33.95757002021748], [-86.84730167673587, 34.00253610051342]]]}}, {"type": "Feature", "properties": {"cluster_id": "9"}, "geometry": {"type": "Polygon", "coordinates": [[[-78.97159421013184, 35.973229957731064], [-78.91606354836385, 35.92826387743513], [-78.97159421013184, 35.88329779713919], [-79.02712487189983, 35.92826387743513], [-78.97159421013184, 35.973229957731064]]]}}]}