{"type": "FeatureCollection", "features": [{"type": "Feature", "properties": {"cluster_id": "0"}, "geometry": {"type": "Polygon", "coordinates": [[[-86.0816, 35.4958], [-86.9048, 35.7173], [-86.9639, 36.0662], [-86.8769, 36.5018], [-86.4481, 36.9375], [-86.3933, 36.9663], [-86.0242, 36.539], [-86.0816, 35.4958]]]}}, {"type": "Feature", "properties": {"cluster_id": "1"}, "geometry": {"type": "Polygon", "coordinates": [[[-74.9653, 39.4655], [-76.1626, 40.2194], [-75.9104, 40.8219], [-75.1187, 41.0936], [-74.8152, 40.7162], [-74.1973, 39.8444], [-74.2604, 39.705], [-74.9653, 39.4655]]]}}, {"type": "Feature", "properties": {"cluster_id": "10"}, "geometry": {"type": "Polygon", "coordinates": [[[-74.1521, 39.9515], [-74.2512, 39.9715], [-74.6267, 40.5904], [-74.6, 40.7789], [-74.5725, 40.8456], [-73.7508, 41.3717], [-73.3146, 40.857], [-73.243, 40.7051], [-74.1521, 39.9515]]]}}, {"type": "Feature", "properties": {"cluster_id": "11"}, "geometry": {"type": "Polygon", "coordinates": [[[-81.7075, 30.7977], [-83.9696, 30.8385], [-84.055, 30.9742], [-81.2354, 32.296], [-81.1632, 32.1491], [-81.7075, 30.7977]]]}}, {"type": "Feature", "properties": {"cluster_id": "12"}, "geometry": {"type": "Polygon", "coordinates": [[[-84.2541, 34.9341], [-85.0135, 35.5002], [-84.2623, 36.0159], [-82.2853, 37.2206], [-84.2541, 34.9341]]]}}, {"type": "Feature", "properties": {"cluster_id": "13"}, "geometry": {"type": "Polygon", "coordinates": [[[-76.5424, 38.9149], [-76.6375, 38.9374], [-76.872, 39.1077], [-77.0265, 40.2122], [-76.3566, 39.9982], [-75.8458, 39.6264], [-76.3371, 38.9394], [-76.5424, 38.9149]]]}}, {"type": "Feature", "properties": {"cluster_id": "14"}, "geometry": {"type": "Polygon", "coordinates": [[[-90.452, 31.5858], [-92.1061, 32.5286], [-92.0981, 32.7119], [-90.4031, 32.8594], [-90.2815, 32.8158], [-90.452, 31.5858]]]}}, {"type": "Feature", "properties": {"cluster_id": "15"}, "geometry": {"type": "Polygon", "coordinates": [[[-88.1119, 36.0556], [-87.4891, 37.0344], [-87.2757, 36.5107], [-88.1119, 36.0556]]]}}, {"type": "Feature", "properties": {"cluster_id": "17"}, "geometry": {"type": "Polygon", "coordinates": [[[-71.9541, 41.7807], [-71.982, 41.8697], [-71.875, 42.2373], [-71.1723, 42.5581], [-70.9425, 42.5694], [-70.8128, 42.2395], [-71.0161, 42.0255], [-71.3009, 41.9296], [-71.9541, 41.7807]]]}}, {"type": "Feature", "properties": {"cluster_id": "18"}, "geometry": {"type": "Polygon", "coordinates": [[[-73.9797, 42.0738], [-75.3095, 43.1158], [-73.7408, 43.0708], [-73.5504, 42.6365], [-73.9797, 42.0738]]]}}, {"type": "Feature", "properties": {"cluster_id": "19"}, "geometry": {"type": "Polygon", "coordinates": [[[-75.8453, 41.2689], [-75.8903, 41.2742], [-75.8977, 42.0811], [-75.4313, 41.4395], [-75.8453, 41.2689]]]}}, {"type": "Feature", "properties": {"cluster_id": "2"}, "geometry": {"type": "Polygon", "coordinates": [[[-76.423, 36.8012], [-77.4832, 36.8191], [-79.0506, 37.6027], [-78.5611, 38.0936], [-76.2829, 37.857], [-76.2686, 36.8586], [-76.423, 36.8012]]]}}, {"type": "Feature", "properties": {"cluster_id": "22"}, "geometry": {"type": "Polygon", "coordinates": [[[-86.5067, 31.3247], [-85.312, 32.5768], [-84.9785, 32.5161], [-86.5067, 31.3247]]]}}, {"type": "Feature", "properties": {"cluster_id": "23"}, "geometry": {"type": "Polygon", "coordinates": [[[-82.2394, 35.2157], [-82.518, 35.5393], [-82.7627, 36.8581], [-82.2394, 35.2157]]]}}, {"type": "Feature", "properties": {"cluster_id": "25"}, "geometry": {"type": "Polygon", "coordinates": [[[-88.6715, 34.2823], [-89.0007, 35.2461], [-88.9849, 36.13], [-88.7453, 36.1485], [-87.6136, 34.9186], [-87.6304, 34.7561], [-88.6715, 34.2823]]]}}, {"type": "Feature", "properties": {"cluster_id": "28"}, "geometry": {"type": "Polygon", "coordinates": [[[-84.055, 30.9742], [-83.6047, 32.546], [-83.3727, 30.9913], [-84.055, 30.9742]]]}}, {"type": "Feature", "properties": {"cluster_id": "3"}, "geometry": {"type": "Polygon", "coordinates": [[[-80.554, 34.8946], [-80.7278, 34.9251], [-81.3509, 35.3747], [-81.5398, 35.9149], [-80.653, 36.1277], [-80.2228, 36.1024], [-79.8509, 35.6396], [-79.7524, 35.0914], [-80.554, 34.8946]]]}}, {"type": "Feature", "properties": {"cluster_id": "4"}, "geometry": {"type": "Polygon", "coordinates": [[[-90.0027, 34.1906], [-90.6348, 34.256], [-90.0296, 35.251], [-89.7816, 35.1602], [-89.4897, 34.7471], [-90.0027, 34.1906]]]}}, {"type": "Feature", "properties": {"cluster_id": "5"}, "geometry": {"type": "Polygon", "coordinates": [[[-84.5654, 32.79], [-84.696, 32.8101], [-84.7454, 33.6989], [-84.6544, 33.9951], [-84.3758, 34.3393], [-83.9798, 34.5299], [-83.3525, 33.9321], [-83.802, 32.8595], [-84.5654, 32.79]]]}}, {"type": "Feature", "properties": {"cluster_id": "6"}, "geometry": {"type": "Polygon", "coordinates": [[[-73.2086, 41.2091], [-73.4532, 41.3917], [-73.4716, 41.424], [-73.4978, 41.473], [-72.6262, 42.202], [-72.2478, 41.7997], [-72.0849, 41.5371], [-72.0579, 41.3572], [-73.0549, 41.2175], [-73.2086, 41.2091]]]}}, {"type": "Feature", "properties": {"cluster_id": "7"}, "geometry": {"type": "Polygon", "coordinates": [[[-76.4083, 38.1441], [-77.5476, 38.2688], [-78.269, 39.1501], [-77.4636, 39.3647], [-77.0059, 39.1148], [-76.5515, 38.7829], [-76.4346, 38.3661], [-76.4083, 38.1441]]]}}, {"type": "Feature", "properties": {"cluster_id": "8"}, "geometry": {"type": "Polygon", "coordinates": [[[-86.7944, 33.1934], [-87.1024, 33.2845], [-87.6304, 34.7561], [-85.9246, 34.048], [-86.7944, 33.1934]]]}}, {"type": "Feature", "properties": {"cluster_id": "9"}, "geometry": {"type": "Polygon", "coordinates": [[[-78.965, 35.0742], [-79.3957, 35.1697], [-79.8626, 36.0334], [-79.806, 36.1824], [-79.458, 36.743], [-78.1594, 36.3539], [-77.9595, 35.9843], [-78.3479, 35.5068], [-78.965, 35.0742]]]}}]}